{
    "links": {
        "self": "http://www.neowsapp.com/rest/v1/neo/3467219?api_key=iIulBulltgU6a56xZRHN4H3l9WmuAYTsLGpBGhQ2"
    },
    "id": "3467219",
    "neo_reference_id": "3467219",
    "name": "(2009 SC1)",
    "designation": "2009 SC1",
    "nasa_jpl_url": "http://ssd.jpl.nasa.gov/sbdb.cgi?sstr=3467219",
    "absolute_magnitude_h": 24.6,
    "estimated_diameter": {
        "kilometers": {
            "estimated_diameter_min": 0.0319561887,
            "estimated_diameter_max": 0.0714562102
        },
        "meters": {
            "estimated_diameter_min": 31.9561886721,
            "estimated_diameter_max": 71.4562101727
        },
        "miles": {
            "estimated_diameter_min": 0.0198566489,
            "estimated_diameter_max": 0.0444008168
        },
        "feet": {
            "estimated_diameter_min": 104.8431420431,
            "estimated_diameter_max": 234.436392583
        }
    },
    "is_potentially_hazardous_asteroid": false,
    "close_approach_data": [
        {
            "close_approach_date": "2009-09-05",
            "close_approach_date_full": "2009-Sep-05 23:08",
            "epoch_date_close_approach": 1252192080000,
            "relative_velocity": {
                "kilometers_per_second": "12.2797912735",
                "kilometers_per_hour": "44207.2485847368",
                "miles_per_hour": "27468.6650997772"
            },
            "miss_distance": {
                "astronomical": "0.0391716917",
                "lunar": "15.2377880713",
                "kilometers": "5860001.642616679",
                "miles": "3641236.1743570102"
            },
            "orbiting_body": "Earth"
        }
    ],
    "orbital_data": {
        "orbit_id": "10",
        "orbit_determination_date": "2017-04-06 09:00:00",
        "first_observation_date": "2009-09-17",
        "last_observation_date": "2009-09-28",
        "data_arc_in_days": 11,
        "observations_used": 29,
        "orbit_uncertainty": "9",
        "minimum_orbit_intersection": ".037813",
        "jupiter_tisserand_invariant": "3.977",
        "epoch_osculation": "2455094.5",
        "eccentricity": ".5013405781611222",
        "semi_major_axis": "1.743702640380226",
        "inclination": "7.552693576777951",
        "ascending_node_longitude": "179.7330429714181",
        "orbital_period": "841.0214347879032",
        "perihelion_distance": ".8695137505109284",
        "perihelion_argument": "108.3403026759601",
        "aphelion_distance": "2.617891530249524",
        "perihelion_time": "2455038.702761138284",
        "mean_anomaly": "23.88405950115111",
        "mean_motion": ".4280509213071225",
        "equinox": "J2000",
        "orbit_class": {
            "orbit_class_type": "APO",
            "orbit_class_description": "Near-Earth asteroid orbits which cross the Earth’s orbit similar to that of 1862 Apollo",
            "orbit_class_range": "a (semi-major axis) > 1.0 AU; q (perihelion) < 1.017 AU"
        }
    },
    "is_sentry_object": false
}